[
    {
        "Altitude(m)": 705595.5002952002,
        "Argument of Periapsis(deg)": 0.006834072711976239,
        "Eccentricity": 0.0,
        "Inclination(deg)": 45.0,
        "Latitude(deg)": 37.22425986230762,
        "Longitude(deg)": -24.532370192148793,
        "Mean Anomaly(deg)": -238.53457001151145,
        "RAAN(deg)": 304.9935488351251,
        "Satellite Name": "Constellation 1 1349",
        "Satellite Number": 1349,
        "Semi-Major Axis(m)": 7083131.272910544,
        "Time(s)": 114
    },
    {
        "Altitude(m)": 705589.7829799831,
        "Argument of Periapsis(deg)": 0.006894020718221645,
        "Eccentricity": 0.0,
        "Inclination(deg)": 45.0,
        "Latitude(deg)": 37.19602764876107,
        "Longitude(deg)": -24.46906121212333,
        "Mean Anomaly(deg)": -238.4738688712616,
        "RAAN(deg)": 304.9934922459595,
        "Satellite Name": "Constellation 1 1349",
        "Satellite Number": 1349,
        "Semi-Major Axis(m)": 7083131.272910544,
        "Time(s)": 115
    },
    {
        "Altitude(m)": 705584.0613835143,
        "Argument of Periapsis(deg)": 0.006953968724467052,
        "Eccentricity": 0.0,
        "Inclination(deg)": 45.0,
        "Latitude(deg)": 37.16775697518613,
        "Longitude(deg)": -24.4058024200999,
        "Mean Anomaly(deg)": -238.41316773101175,
        "RAAN(deg)": 304.99343565679396,
        "Satellite Name": "Constellation 1 1349",
        "Satellite Number": 1349,
        "Semi-Major Axis(m)": 7083131.272910544,
        "Time(s)": 116
    },
    {
        "Altitude(m)": 705578.3355414446,
        "Argument of Periapsis(deg)": 0.007013916730712457,
        "Eccentricity": 0.0,
        "Inclination(deg)": 45.0,
        "Latitude(deg)": 37.13944790873912,
        "Longitude(deg)": -24.342593795337127,
        "Mean Anomaly(deg)": -238.35246659076185,
        "RAAN(deg)": 304.9933790676284,
        "Satellite Name": "Constellation 1 1349",
        "Satellite Number": 1349,
        "Semi-Major Axis(m)": 7083131.272910544,
        "Time(s)": 117
    },
    {
        "Altitude(m)": 705572.6054894555,
        "Argument of Periapsis(deg)": 0.007073864736957864,
        "Eccentricity": 0.0,
        "Inclination(deg)": 45.0,
        "Latitude(deg)": 37.111100516531266,
        "Longitude(deg)": -24.27943531679451,
        "Mean Anomaly(deg)": -238.29176545051192,
        "RAAN(deg)": 304.9933224784628,
        "Satellite Name": "Constellation 1 1349",
        "Satellite Number": 1349,
        "Semi-Major Axis(m)": 7083131.272910544,
        "Time(s)": 118
    },
    {
        "Altitude(m)": 705566.8712632651,
        "Argument of Periapsis(deg)": 0.0071338127432032696,
        "Eccentricity": 0.0,
        "Inclination(deg)": 45.0,
        "Latitude(deg)": 37.08271486562787,
        "Longitude(deg)": -24.216327131230667,
        "Mean Anomaly(deg)": -238.231064310262,
        "RAAN(deg)": 304.9932658892973,
        "Satellite Name": "Constellation 1 1349",
        "Satellite Number": 1349,
        "Semi-Major Axis(m)": 7083131.272910544,
        "Time(s)": 119
    },
    {
        "Altitude(m)": 705561.1328986286,
        "Argument of Periapsis(deg)": 0.007193760749448674,
        "Eccentricity": 0.0,
        "Inclination(deg)": 45.0,
        "Latitude(deg)": 37.05429102304947,
        "Longitude(deg)": -24.153268880817354,
        "Mean Anomaly(deg)": -238.17036317001214,
        "RAAN(deg)": 304.99320930013164,
        "Satellite Name": "Constellation 1 1349",
        "Satellite Number": 1349,
        "Semi-Major Axis(m)": 7083131.272910544,
        "Time(s)": 120
    },
    {
        "Altitude(m)": 705555.3904313411,
        "Argument of Periapsis(deg)": 0.007253708755694079,
        "Eccentricity": 0.0,
        "Inclination(deg)": 45.0,
        "Latitude(deg)": 37.02582905576956,
        "Longitude(deg)": -24.090260711721925,
        "Mean Anomaly(deg)": -238.1096620297622,
        "RAAN(deg)": 304.9931527109661,
        "Satellite Name": "Constellation 1 1349",
        "Satellite Number": 1349,
        "Semi-Major Axis(m)": 7083131.272910544,
        "Time(s)": 121
    },
    {
        "Altitude(m)": 705549.6438972311,
        "Argument of Periapsis(deg)": 0.0073136567619394854,
        "Eccentricity": 0.0,
        "Inclination(deg)": 45.0,
        "Latitude(deg)": 36.99732903071544,
        "Longitude(deg)": -24.0273026017214,
        "Mean Anomaly(deg)": -238.0489608895123,
        "RAAN(deg)": 304.99309612180053,
        "Satellite Name": "Constellation 1 1349",
        "Satellite Number": 1349,
        "Semi-Major Axis(m)": 7083131.272910544,
        "Time(s)": 122
    },
    {
        "Altitude(m)": 705543.8933321561,
        "Argument of Periapsis(deg)": 0.0073736047681848904,
        "Eccentricity": 0.0,
        "Inclination(deg)": 45.0,
        "Latitude(deg)": 36.968791014767596,
        "Longitude(deg)": -23.96439452830088,
        "Mean Anomaly(deg)": -237.98825974926243,
        "RAAN(deg)": 304.99303953263495,
        "Satellite Name": "Constellation 1 1349",
        "Satellite Number": 1349,
        "Semi-Major Axis(m)": 7083131.272910544,
        "Time(s)": 123
    },
    {
        "Altitude(m)": 705538.1387720213,
        "Argument of Periapsis(deg)": 0.007433552774430298,
        "Eccentricity": 0.0,
        "Inclination(deg)": 45.0,
        "Latitude(deg)": 36.94021507475943,
        "Longitude(deg)": -23.901536468654605,
        "Mean Anomaly(deg)": -237.9275586090125,
        "RAAN(deg)": 304.99298294346943,
        "Satellite Name": "Constellation 1 1349",
        "Satellite Number": 1349,
        "Semi-Major Axis(m)": 7083131.272910544,
        "Time(s)": 124
    },
    {
        "Altitude(m)": 705532.3802527594,
        "Argument of Periapsis(deg)": 0.007493500780675703,
        "Eccentricity": 0.0,
        "Inclination(deg)": 45.0,
        "Latitude(deg)": 36.911601277477004,
        "Longitude(deg)": -23.838728399688122,
        "Mean Anomaly(deg)": -237.8668574687626,
        "RAAN(deg)": 304.99292635430385,
        "Satellite Name": "Constellation 1 1349",
        "Satellite Number": 1349,
        "Semi-Major Axis(m)": 7083131.272910544,
        "Time(s)": 125
    },
    {
        "Altitude(m)": 705526.6178103408,
        "Argument of Periapsis(deg)": 0.007553448786921108,
        "Eccentricity": 0.0,
        "Inclination(deg)": 45.0,
        "Latitude(deg)": 36.88294968965809,
        "Longitude(deg)": -23.7759704661153,
        "Mean Anomaly(deg)": -237.80615632851269,
        "RAAN(deg)": 304.99286976513827,
        "Satellite Name": "Constellation 1 1349",
        "Satellite Number": 1349,
        "Semi-Major Axis(m)": 7083131.272910544,
        "Time(s)": 126
    },
    {
        "Altitude(m)": 705520.8514807646,
        "Argument of Periapsis(deg)": 0.007613396793166514,
        "Eccentricity": 0.0,
        "Inclination(deg)": 45.0,
        "Latitude(deg)": 36.85426037799334,
        "Longitude(deg)": -23.713262308073226,
        "Mean Anomaly(deg)": -237.7454551882628,
        "RAAN(deg)": 304.9928131759727,
        "Satellite Name": "Constellation 1 1349",
        "Satellite Number": 1349,
        "Semi-Major Axis(m)": 7083131.272910544,
        "Time(s)": 127
    },
    {
        "Altitude(m)": 705515.0813000791,
        "Argument of Periapsis(deg)": 0.007673344799411918,
        "Eccentricity": 0.0,
        "Inclination(deg)": 45.0,
        "Latitude(deg)": 36.82553340912421,
        "Longitude(deg)": -23.650604069704674,
        "Mean Anomaly(deg)": -237.68475404801296,
        "RAAN(deg)": 304.9927565868071,
        "Satellite Name": "Constellation 1 1349",
        "Satellite Number": 1349,
        "Semi-Major Axis(m)": 7083131.272910544,
        "Time(s)": 128
    },
    {
        "Altitude(m)": 705509.3073043575,
        "Argument of Periapsis(deg)": 0.007733292805657325,
        "Eccentricity": 0.0,
        "Inclination(deg)": 45.0,
        "Latitude(deg)": 36.796768849643655,
        "Longitude(deg)": -23.58799572677197,
        "Mean Anomaly(deg)": -237.62405290776306,
        "RAAN(deg)": 304.9926999976416,
        "Satellite Name": "Constellation 1 1349",
        "Satellite Number": 1349,
        "Semi-Major Axis(m)": 7083131.272910544,
        "Time(s)": 129
    },
    {
        "Altitude(m)": 705503.5295297087,
        "Argument of Periapsis(deg)": 0.00779324081190273,
        "Eccentricity": 0.0,
        "Inclination(deg)": 45.0,
        "Latitude(deg)": 36.767966766095576,
        "Longitude(deg)": -23.52543725475494,
        "Mean Anomaly(deg)": -237.56335176751313,
        "RAAN(deg)": 304.992643408476,
        "Satellite Name": "Constellation 1 1349",
        "Satellite Number": 1349,
        "Semi-Major Axis(m)": 7083131.272910544,
        "Time(s)": 130
    },
    {
        "Altitude(m)": 705497.7480122707,
        "Argument of Periapsis(deg)": 0.007853188818148135,
        "Eccentricity": 0.0,
        "Inclination(deg)": 45.0,
        "Latitude(deg)": 36.739127224974546,
        "Longitude(deg)": -23.46292862885304,
        "Mean Anomaly(deg)": -237.50265062726322,
        "RAAN(deg)": 304.99258681931036,
        "Satellite Name": "Constellation 1 1349",
        "Satellite Number": 1349,
        "Semi-Major Axis(m)": 7083131.272910544,
        "Time(s)": 131
    },
    {
        "Altitude(m)": 705491.9627882292,
        "Argument of Periapsis(deg)": 0.007913136824393542,
        "Eccentricity": 0.0,
        "Inclination(deg)": 45.0,
        "Latitude(deg)": 36.71025029272557,
        "Longitude(deg)": -23.40046982398586,
        "Mean Anomaly(deg)": -237.4419494870133,
        "RAAN(deg)": 304.99253023014484,
        "Satellite Name": "Constellation 1 1349",
        "Satellite Number": 1349,
        "Semi-Major Axis(m)": 7083131.272910544,
        "Time(s)": 132
    }
]